OBJECT_NAME,OBJECT_ID,EPOCH,MEAN_MOTION,ECCENTRICITY,INCLINATION,RA_OF_ASC_NODE,ARG_OF_PERICENTER,MEAN_ANOMALY,EPHEMERIS_TYPE,CLASSIFICATION_TYPE,NORAD_CAT_ID,ELEMENT_SET_NO,REV_AT_EPOCH,BSTAR,MEAN_MOTION_DOT,MEAN_MOTION_DDOT
LEMUR-1,2014-033AL,2026-07-11T21:11:51.417600,14.85331099,.0048047,97.7903,342.1444,358.8650,1.2448,0,U,40044,999,64913,.10759E-3,.888E-5,0
LEMUR-2-GREENBERG,2017-042N,2026-07-09T11:53:19.376160,15.32031511,.00071356,97.3831,11.0293,283.6729,76.3718,0,U,42837,999,49180,.3749711E-3,.11532E-3,0
LEMUR-2-ANDIS,2017-042P,2026-07-12T11:15:38.397024,15.35849981,.0007132,97.3674,14.2674,269.8003,90.2423,0,U,42838,999,49233,.36920282E-3,.12815E-3,0
LEMUR-2-MONSON,2017-042Q,2026-07-10T11:15:45.883584,15.28674858,.00051568,97.4089,11.9359,266.7916,93.2733,0,U,42839,999,49172,.34676682E-3,.96E-4,0
LEMUR-2-FURIAUS,2017-042R,2026-07-12T10:41:36.677760,15.31072029,.00062398,97.3775,11.8672,340.6601,19.4403,0,U,42840,999,49207,.35675373E-3,.10642E-3,0
LEMUR-2-PETERG,2017-042S,2026-07-12T19:03:59.455296,15.34973234,.0003152,97.3989,18.8865,230.6051,129.4913,0,U,42841,999,49236,.44268E-3,.14951E-3,0
LEMUR-2-DEMBITZ,2017-042T,2026-07-12T11:09:59.302080,15.31053389,.00050816,97.3821,14.9283,286.7424,73.3260,0,U,42842,999,49221,.33095021E-3,.9858E-4,0
LEMUR-2-ZACHARY,2017-042W,2026-07-12T11:22:55.117920,15.52533794,.00024605,97.3575,25.6887,261.6834,98.4140,0,U,42845,999,49312,.52089587E-3,.31926E-3,0
LEMUR-2-AMANDA-SVANTE,2021-034B,2026-07-12T18:42:41.198400,15.35862163,.000453,97.5758,272.7671,149.3541,210.7967,0,U,48269,999,28498,.74134E-3,.25852E-3,0
LEMUR-2-SPECIAL-K,2021-034F,2026-07-12T18:59:05.709120,15.73857408,.000621,97.5640,282.6731,216.3246,143.7597,0,U,48273,999,28570,.1554E-2,.224827E-2,0
LEMUR-2-EMBRIONOVIS,2023-084AQ,2026-07-12T20:06:50.506848,15.38191732,.0008097,97.6313,339.0377,215.5388,144.5318,0,U,56970,999,17162,.26205E-3,.978E-4,0
LEMUR-2-DEVERILL-M-T,2023-100F,2026-07-12T15:12:24.755904,15.41007808,.0004673,99.4458,239.7654,307.8207,52.2609,0,U,57391,999,16516,.43148E-3,.17703E-3,0
LEMUR-2-BASS,2023-174D,2026-07-12T18:04:15.935808,15.43942416,.0007761,97.3851,278.8361,85.5175,274.6959,0,U,58259,999,14930,.28517E-3,.12902E-3,0
LEMUR-2-JK0903EM1407,2023-174CJ,2026-07-12T19:11:04.373952,15.52985457,.0003839,97.3925,285.0147,41.9807,318.1740,0,U,58336,999,14970,.3424E-3,.21271E-3,0
LEMUR-2-MJR092620,2023-174CN,2026-07-12T19:13:11.781120,15.45807288,.0005521,97.3982,284.3173,38.1554,322.0085,0,U,58340,999,14960,.30698E-3,.14802E-3,0
LEMUR-2-NIMBUS2000,2024-022A,2026-07-12T12:59:35.500704,15.41041214,.00090269,97.4088,43.8762,37.5068,322.6807,0,U,58899,999,13617,.35694412E-3,.14682E-3,0
LEMUR-2-VALHALLA,2024-022B,2026-07-12T13:05:03.405984,15.40435155,.00094953,97.4084,43.8528,32.9596,327.2241,0,U,58900,999,13617,.26232161E-3,.10549E-3,0
LEMUR-2-CAEL,2024-022E,2026-07-12T12:47:42.015552,15.41796440,.00073905,97.4069,44.8221,18.8003,341.3516,0,U,58903,999,13624,.26918196E-3,.11322E-3,0
LEMUR-2-JOHNNYTRUONG,2024-043BA,2026-07-12T20:21:35.515008,15.62433414,.0004186,97.5384,347.1811,100.2015,259.9715,0,U,59146,999,13204,.40312E-3,.35739E-3,0
LEMUR-2-TOMATOKECHUP,2024-149D,2026-07-12T18:28:56.034336,15.36552510,.0003218,97.3802,275.8895,127.0790,233.0748,0,U,60471,999,10609,.21932E-3,.7744E-4,0
LEMUR-2-STELLA,2024-149BT,2026-07-12T18:11:32.160768,15.12343479,.0001212,97.6742,276.3329,111.1523,248.9837,0,U,60533,999,10436,.4346E-3,.7469E-4,0
LEMUR-2-MARHISYAM,2024-149BW,2026-07-12T17:57:04.415328,15.11751485,.0002737,97.6886,276.7972,73.8145,286.3386,0,U,60536,999,10434,.40079E-3,.677E-4,0
LEMUR-2-AHMED-ASRAR,2024-149DN,2026-07-12T18:09:59.931360,15.13277524,.0000936,97.7013,278.9991,206.0418,154.0766,0,U,60576,999,10443,.43625E-3,.7696E-4,0
LEMUR-2-LLOYD,2024-149DP,2026-07-12T18:18:09.269856,15.09725629,.0004788,97.6753,274.9120,77.3680,282.8084,0,U,60577,999,10425,.43716E-3,.6988E-4,0
LEMUR-2-SQUIRRELCOMM,2024-149DQ,2026-07-12T17:56:25.098144,15.07434376,.000421,97.6717,274.5815,339.5368,20.5690,0,U,60578,999,10425,.22806E-3,.3392E-4,0
LEMUR-2-SIERRINI,2024-149DR,2026-07-12T18:38:03.346368,15.11482474,.0006417,97.6846,276.4893,96.6845,263.5115,0,U,60579,999,10432,.49104E-3,.8252E-4,0
LEMUR-2-WILSON,2025-009CP,2026-07-12T19:01:34.920192,14.95272934,.0002205,97.7022,271.8086,338.0585,22.0541,0,U,62694,999,8118,.80295E-4,.827E-5,0
LEMUR-2-STAR-FOX,2025-009CR,2026-07-12T19:06:54.480960,15.02825375,.0002504,97.6917,275.2217,52.5903,307.5549,0,U,62696,999,8140,.30473E-3,.4021E-4,0
LEMUR-2-ARIANNA,2025-009CU,2026-07-12T19:04:42.170592,15.02826231,.0002828,97.6856,274.9744,57.8921,302.2579,0,U,62699,999,8140,.31771E-3,.4195E-4,0
LEMUR-2-ALISIA,2025-009DB,2026-07-12T18:25:40.205280,15.03154652,.0003987,97.6971,275.7673,136.3762,223.7778,0,U,62706,999,10400,.40766E-3,.5448E-4,0
